COMMENT,ORIGINATOR,NORAD_CAT_ID,OBJECT_NAME,OBJECT_TYPE,CLASSIFICATION_TYPE,INTLDES,EPOCH,EPOCH_MICROSECONDS,MEAN_MOTION,ECCENTRICITY,INCLINATION,RA_OF_ASC_NODE,ARG_OF_PERICENTER,MEAN_ANOMALY,EPHEMERIS_TYPE,ELEMENT_SET_NO,REV_AT_EPOCH,BSTAR,MEAN_MOTION_DOT,MEAN_MOTION_DDOT,FILE,TLE_LINE0,TLE_LINE1,TLE_LINE2,OBJECT_ID,OBJECT_NUMBER,SEMIMAJOR_AXIS,PERIOD,APOGEE,PERIGEE,DECAYED
"GENERATED VIA SPACETRACK.ORG API","18 SPCS","55094","SPACEBEE-165","PAYLOAD","U","23001CP","2024-02-10 09:43:57","4896","15.33250169","0.0009906","97.4413","105.928","242.4812","117.5424","0","999","6142","0.001369","0.00044172","0","4184699","0 SPACEBEE-165","1 55094U 23001CP  24041.40552089  .00044172  00000-0  13690-2 0  9992","2 55094  97.4413 105.9280 0009906 242.4812 117.5424 15.33250169 61427","2023-001CP","55094","6844.260","93.918","472.905","459.345","0"
"GENERATED VIA SPACETRACK.ORG API","18 SPCS","55094","SPACEBEE-165","PAYLOAD","U","23001CP","2024-02-10 09:43:57","4896","15.33250169","0.0009906","97.4413","105.928","242.4812","117.5424","0","999","6142","0.001369","0.00044172","0","4184737","0 SPACEBEE-165","1 55094U 23001CP  24041.40552089  .00044172  00000-0  13690-2 0  9992","2 55094  97.4413 105.9280 0009906 242.4812 117.5424 15.33250169 61427","2023-001CP","55094","6844.260","93.918","472.905","459.345","0"
"GENERATED VIA SPACETRACK.ORG API","18 SPCS","55094","SPACEBEE-165","PAYLOAD","U","23001CP","2024-02-10 19:07:49","21824","15.33287194","0.0009895","97.4412","106.3222","241.2424","118.7825","0","999","6148","0.0014824","0.00047916","0","4185013","0 SPACEBEE-165","1 55094U 23001CP  24041.79709516  .00047916  00000-0  14824-2 0  9992","2 55094  97.4412 106.3222 0009895 241.2424 118.7825 15.33287194 61482","2023-001CP","55094","6844.150","93.916","472.787","459.242","0"
"GENERATED VIA SPACETRACK.ORG API","18 SPCS","55094","SPACEBEE-165","PAYLOAD","U","23001CP","2024-02-11 02:57:41","742720","15.33320851","0.0009894","97.441","106.6505","240.0171","120.0089","0","999","6153","0.0016366","0.00053","0","4185583","0 SPACEBEE-165","1 55094U 23001CP  24042.12339980  .00053000  00000-0  16366-2 0  9998","2 55094  97.4410 106.6505 0009894 240.0171 120.0089 15.33320851 61534","2023-001CP","55094","6844.050","93.914","472.686","459.143","0"
"GENERATED VIA SPACETRACK.ORG API","18 SPCS","55094","SPACEBEE-165","PAYLOAD","U","23001CP","2024-02-11 02:57:41","742720","15.33320851","0.0009894","97.441","106.6505","240.0171","120.0089","0","999","6153","0.0016366","0.00053","0","4185591","0 SPACEBEE-165","1 55094U 23001CP  24042.12339980  .00053000  00000-0  16366-2 0  9998","2 55094  97.4410 106.6505 0009894 240.0171 120.0089 15.33320851 61534","2023-001CP","55094","6844.050","93.914","472.686","459.143","0"
"GENERATED VIA SPACETRACK.ORG API","18 SPCS","55094","SPACEBEE-165","PAYLOAD","U","23001CP","2024-02-11 17:03:27","106560","15.33379453","0.0009886","97.4409","107.2417","237.6918","122.3368","0","999","6162","0.00164","0.00053209","0","4185871","0 SPACEBEE-165","1 55094U 23001CP  24042.71073040  .00053209  00000-0  16400-2 0  9995","2 55094  97.4409 107.2417 0009886 237.6918 122.3368 15.33379453 61620","2023-001CP","55094","6843.875","93.910","472.506","458.974","0"
"GENERATED VIA SPACETRACK.ORG API","18 SPCS","55094","SPACEBEE-165","PAYLOAD","U","23001CP","2024-02-12 04:01:14","245536","15.33427566","0.0009886","97.4406","107.7014","235.894","124.1365","0","999","6169","0.0015678","0.00050925","0","4186174","0 SPACEBEE-165","1 55094U 23001CP  24043.16752599  .00050925  00000-0  15678-2 0  9996","2 55094  97.4406 107.7014 0009886 235.8940 124.1365 15.33427566 61693","2023-001CP","55094","6843.732","93.907","472.363","458.831","0"
"GENERATED VIA SPACETRACK.ORG API","18 SPCS","55094","SPACEBEE-165","PAYLOAD","U","23001CP","2024-02-12 04:01:14","245536","15.33427566","0.0009886","97.4406","107.7014","235.894","124.1365","0","999","6169","0.0015678","0.00050925","0","4186491","0 SPACEBEE-165","1 55094U 23001CP  24043.16752599  .00050925  00000-0  15678-2 0  9996","2 55094  97.4406 107.7014 0009886 235.8940 124.1365 15.33427566 61693","2023-001CP","55094","6843.732","93.907","472.363","458.831","0"
"GENERATED VIA SPACETRACK.ORG API","18 SPCS","55094","SPACEBEE-165","PAYLOAD","U","23001CP","2024-02-12 16:32:57","965856","15.33483296","0.0009878","97.4406","108.2271","234.5294","125.5027","0","999","6177","0.0014689","0.00047772","0","4186778","0 SPACEBEE-165","1 55094U 23001CP  24043.68955979  .00047772  00000-0  14689-2 0  9997","2 55094  97.4406 108.2271 0009878 234.5294 125.5027 15.33483296 61774","2023-001CP","55094","6843.566","93.904","472.191","458.671","0"
"GENERATED VIA SPACETRACK.ORG API","18 SPCS","55094","SPACEBEE-165","PAYLOAD","U","23001CP","2024-02-13 14:28:25","870944","15.33576442","0.0009876","97.44","109.1474","231.5961","128.4395","0","999","6191","0.0016929","0.00055285","0","4187441","0 SPACEBEE-165","1 55094U 23001CP  24044.60307721  .00055285  00000-0  16929-2 0  9993","2 55094  97.4400 109.1474 0009876 231.5961 128.4395 15.33576442 61911","2023-001CP","55094","6843.289","93.898","471.913","458.396","0"
"GENERATED VIA SPACETRACK.ORG API","18 SPCS","55094","SPACEBEE-165","PAYLOAD","U","23001CP","2024-02-13 16:02:23","402688","15.33583161","0.0009895","97.4399","109.2131","231.2703","128.7655","0","999","6192","0.00166","0.00054213","0","4187743","0 SPACEBEE-165","1 55094U 23001CP  24044.66832642  .00054213  00000-0  16600-2 0  9990","2 55094  97.4399 109.2131 0009895 231.2703 128.7655 15.33583161 61920","2023-001CP","55094","6843.269","93.898","471.906","458.363","0"
"GENERATED VIA SPACETRACK.ORG API","18 SPCS","55094","SPACEBEE-165","PAYLOAD","U","23001CP","2024-02-13 16:02:23","402688","15.33583161","0.0009895","97.4399","109.2131","231.2703","128.7655","0","999","6192","0.00166","0.00054213","0","4187767","0 SPACEBEE-165","1 55094U 23001CP  24044.66832642  .00054213  00000-0  16600-2 0  9990","2 55094  97.4399 109.2131 0009895 231.2703 128.7655 15.33583161 61920","2023-001CP","55094","6843.269","93.898","471.906","458.363","0"
"GENERATED VIA SPACETRACK.ORG API","18 SPCS","55094","SPACEBEE-165","PAYLOAD","U","23001CP","2024-02-14 10:49:51","460320","15.33674143","0.000997","97.44","110.0014","227.3488","132.6915","0","999","6204","0.0019049","0.0006247","0","4188404","0 SPACEBEE-165","1 55094U 23001CP  24045.45129005  .00062470  00000-0  19049-2 0  9994","2 55094  97.4400 110.0014 0009970 227.3488 132.6915 15.33674143 62041","2023-001CP","55094","6842.998","93.892","471.686","458.041","0"
"GENERATED VIA SPACETRACK.ORG API","18 SPCS","55094","SPACEBEE-165","PAYLOAD","U","23001CP","2024-02-14 17:05:40","16544","15.33698556","0.0009948","97.4399","110.2642","226.2922","133.7497","0","999","6208","0.0014896","0.00048783","0","4188685","0 SPACEBEE-165","1 55094U 23001CP  24045.71226871  .00048783  00000-0  14896-2 0  9998","2 55094  97.4399 110.2642 0009948 226.2922 133.7497 15.33698556 62088","2023-001CP","55094","6842.926","93.891","471.598","457.984","0"
"GENERATED VIA SPACETRACK.ORG API","18 SPCS","55094","SPACEBEE-165","PAYLOAD","U","23001CP","2024-02-14 21:47:31","96320","15.33721265","0.0009992","97.4399","110.4609","225.5532","134.4894","0","999","6211","0.0016094","0.00052779","0","4188727","0 SPACEBEE-165","1 55094U 23001CP  24045.90799880  .00052779  00000-0  16094-2 0  9996","2 55094  97.4399 110.4609 0009992 225.5532 134.4894 15.33721265 62118","2023-001CP","55094","6842.858","93.889","471.561","457.886","0"
"GENERATED VIA SPACETRACK.ORG API","18 SPCS","55094","SPACEBEE-165","PAYLOAD","U","23001CP","2024-02-15 04:03:18","976032","15.33748836","0.0009993","97.4399","110.7237","224.3586","135.6857","0","999","6215","0.0017152","0.00056329","0","4189324","0 SPACEBEE-165","1 55094U 23001CP  24046.16896963  .00056329  00000-0  17152-2 0  9996","2 55094  97.4399 110.7237 0009993 224.3586 135.6857 15.33748836 62154","2023-001CP","55094","6842.776","93.888","471.479","457.803","0"
"GENERATED VIA SPACETRACK.ORG API","18 SPCS","55094","SPACEBEE-165","PAYLOAD","U","23001CP","2024-02-15 16:34:53","476608","15.33795663","0.0009967","97.4396","111.2497","222.6789","137.368","0","999","6223","0.0013883","0.00045581","0","4189707","0 SPACEBEE-165","1 55094U 23001CP  24046.69089672  .00045581  00000-0  13883-2 0  9990","2 55094  97.4396 111.2497 0009967 222.6789 137.3680 15.33795663 62234","2023-001CP","55094","6842.637","93.885","471.322","457.682","0"
"GENERATED VIA SPACETRACK.ORG API","18 SPCS","55094","SPACEBEE-165","PAYLOAD","U","23001CP","2024-02-16 03:32:29","992704","15.33842341","0.0010068","97.4396","111.7094","220.8459","139.2029","0","999","6230","0.0014756","0.00048544","0","4190011","0 SPACEBEE-165","1 55094U 23001CP  24047.14756936  .00048544  00000-0  14756-2 0  9997","2 55094  97.4396 111.7094 0010068 220.8459 139.2029 15.33842341 62302","2023-001CP","55094","6842.498","93.882","471.252","457.474","0"
"GENERATED VIA SPACETRACK.ORG API","18 SPCS","55094","SPACEBEE-165","PAYLOAD","U","23001CP","2024-02-16 14:30:05","366592","15.33887349","0.0010002","97.4395","112.1697","219.5791","140.4722","0","999","6237","0.0017119","0.00056468","0","4190317","0 SPACEBEE-165","1 55094U 23001CP  24047.60422878  .00056468  00000-0  17119-2 0  9993","2 55094  97.4395 112.1697 0010002 219.5791 140.4722 15.33887349 62375","2023-001CP","55094","6842.364","93.879","471.073","457.386","0"
"GENERATED VIA SPACETRACK.ORG API","18 SPCS","55094","SPACEBEE-165","PAYLOAD","U","23001CP","2024-02-16 16:04:01","730208","15.33895582","0.0010034","97.4396","112.2352","219.1158","140.936","0","999","6238","0.0015848","0.00052255","0","4190592","0 SPACEBEE-165","1 55094U 23001CP  24047.66946447  .00052255  00000-0  15848-2 0  9999","2 55094  97.4396 112.2352 0010034 219.1158 140.9360 15.33895582 62385","2023-001CP","55094","6842.340","93.879","471.070","457.339","0"
